CCSDS_OMM_VERS = 2.0
CREATION_DATE  = 
ORIGINATOR     = 

OBJECT_NAME    = CSG-3
OBJECT_ID      = 2026-001A
CENTER_NAME    = EARTH
REF_FRAME      = TEME
TIME_SYSTEM    = UTC
MEAN_ELEMENT_THEORY = SGP/SGP4

EPOCH          = 2026-02-02T15:36:47.487168
MEAN_MOTION    = 14.82154759
ECCENTRICITY   = .00012633
INCLINATION    = 97.8775
RA_OF_ASC_NODE = 219.1996
ARG_OF_PERICENTER = 85.6479
MEAN_ANOMALY   = 274.4879

EPHEMERIS_TYPE = 0
CLASSIFICATION_TYPE = U
NORAD_CAT_ID   = 67304
ELEMENT_SET_NO = 999
REV_AT_EPOCH   = 453
BSTAR          = .50646491E-3
MEAN_MOTION_DOT = .3982E-4
MEAN_MOTION_DDOT = 0

CCSDS_OMM_VERS = 2.0
CREATION_DATE  = 
ORIGINATOR     = 

OBJECT_NAME    = STARLINK-36490
OBJECT_ID      = 2026-002A
CENTER_NAME    = EARTH
REF_FRAME      = TEME
TIME_SYSTEM    = UTC
MEAN_ELEMENT_THEORY = SGP/SGP4

EPOCH          = 2026-02-02T09:56:29.746752
MEAN_MOTION    = 15.50660444
ECCENTRICITY   = .00007069
INCLINATION    = 42.9969
RA_OF_ASC_NODE = 165.3805
ARG_OF_PERICENTER = 233.7598
MEAN_ANOMALY   = 126.3197

EPHEMERIS_TYPE = 0
CLASSIFICATION_TYPE = U
NORAD_CAT_ID   = 67305
ELEMENT_SET_NO = 999
REV_AT_EPOCH   = 573
BSTAR          = .13098384E-2
MEAN_MOTION_DOT = .77489E-3
MEAN_MOTION_DDOT = 0

CCSDS_OMM_VERS = 2.0
CREATION_DATE  = 
ORIGINATOR     = 

OBJECT_NAME    = STARLINK-36488
OBJECT_ID      = 2026-002B
CENTER_NAME    = EARTH
REF_FRAME      = TEME
TIME_SYSTEM    = UTC
MEAN_ELEMENT_THEORY = SGP/SGP4

EPOCH          = 2026-02-02T09:56:00.136608
MEAN_MOTION    = 15.50624475
ECCENTRICITY   = .00011428
INCLINATION    = 43.0010
RA_OF_ASC_NODE = 165.3806
ARG_OF_PERICENTER = 257.9128
MEAN_ANOMALY   = 102.1604

EPHEMERIS_TYPE = 0
CLASSIFICATION_TYPE = U
NORAD_CAT_ID   = 67306
ELEMENT_SET_NO = 999
REV_AT_EPOCH   = 567
BSTAR          = .1966215E-2
MEAN_MOTION_DOT = .116934E-2
MEAN_MOTION_DDOT = 0

CCSDS_OMM_VERS = 2.0
CREATION_DATE  = 
ORIGINATOR     = 

OBJECT_NAME    = STARLINK-36481
OBJECT_ID      = 2026-002C
CENTER_NAME    = EARTH
REF_FRAME      = TEME
TIME_SYSTEM    = UTC
MEAN_ELEMENT_THEORY = SGP/SGP4

EPOCH          = 2026-02-02T09:55:00.805728
MEAN_MOTION    = 15.50633263
ECCENTRICITY   = .00008644
INCLINATION    = 42.9971
RA_OF_ASC_NODE = 165.3718
ARG_OF_PERICENTER = 228.7762
MEAN_ANOMALY   = 131.3024

EPHEMERIS_TYPE = 0
CLASSIFICATION_TYPE = U
NORAD_CAT_ID   = 67307
ELEMENT_SET_NO = 999
REV_AT_EPOCH   = 567
BSTAR          = .11167512E-2
MEAN_MOTION_DOT = .65853E-3
MEAN_MOTION_DDOT = 0

CCSDS_OMM_VERS = 2.0
CREATION_DATE  = 
ORIGINATOR     = 

OBJECT_NAME    = STARLINK-36449
OBJECT_ID      = 2026-002D
CENTER_NAME    = EARTH
REF_FRAME      = TEME
TIME_SYSTEM    = UTC
MEAN_ELEMENT_THEORY = SGP/SGP4

EPOCH          = 2026-02-02T09:54:31.432320
MEAN_MOTION    = 15.50633475
ECCENTRICITY   = .00019791
INCLINATION    = 43.0025
RA_OF_ASC_NODE = 165.3724
ARG_OF_PERICENTER = 285.3790
MEAN_ANOMALY   = 74.6852

EPHEMERIS_TYPE = 0
CLASSIFICATION_TYPE = U
NORAD_CAT_ID   = 67308
ELEMENT_SET_NO = 999
REV_AT_EPOCH   = 573
BSTAR          = .15419831E-2
MEAN_MOTION_DOT = .9136E-3
MEAN_MOTION_DDOT = 0

CCSDS_OMM_VERS = 2.0
CREATION_DATE  = 
ORIGINATOR     = 

OBJECT_NAME    = STARLINK-36482
OBJECT_ID      = 2026-002E
CENTER_NAME    = EARTH
REF_FRAME      = TEME
TIME_SYSTEM    = UTC
MEAN_ELEMENT_THEORY = SGP/SGP4

EPOCH          = 2026-02-02T09:52:02.953056
MEAN_MOTION    = 15.50636118
ECCENTRICITY   = .00010792
INCLINATION    = 42.9975
RA_OF_ASC_NODE = 165.3562
ARG_OF_PERICENTER = 250.7806
MEAN_ANOMALY   = 109.2938

EPHEMERIS_TYPE = 0
CLASSIFICATION_TYPE = U
NORAD_CAT_ID   = 67309
ELEMENT_SET_NO = 999
REV_AT_EPOCH   = 567
BSTAR          = .12027863E-2
MEAN_MOTION_DOT = .71007E-3
MEAN_MOTION_DDOT = 0

CCSDS_OMM_VERS = 2.0
CREATION_DATE  = 
ORIGINATOR     = 

OBJECT_NAME    = STARLINK-36491
OBJECT_ID      = 2026-002F
CENTER_NAME    = EARTH
REF_FRAME      = TEME
TIME_SYSTEM    = UTC
MEAN_ELEMENT_THEORY = SGP/SGP4

EPOCH          = 2026-02-02T09:55:30.485856
MEAN_MOTION    = 15.50634728
ECCENTRICITY   = .00007408
INCLINATION    = 42.9979
RA_OF_ASC_NODE = 165.3773
ARG_OF_PERICENTER = 255.0106
MEAN_ANOMALY   = 105.0672

EPHEMERIS_TYPE = 0
CLASSIFICATION_TYPE = U
NORAD_CAT_ID   = 67310
ELEMENT_SET_NO = 999
REV_AT_EPOCH   = 567
BSTAR          = .11188035E-2
MEAN_MOTION_DOT = .65979E-3
MEAN_MOTION_DDOT = 0

CCSDS_OMM_VERS = 2.0
CREATION_DATE  = 
ORIGINATOR     = 

OBJECT_NAME    = STARLINK-36495
OBJECT_ID      = 2026-002G
CENTER_NAME    = EARTH
REF_FRAME      = TEME
TIME_SYSTEM    = UTC
MEAN_ELEMENT_THEORY = SGP/SGP4

EPOCH          = 2026-02-02T09:54:01.651968
MEAN_MOTION    = 15.50709180
ECCENTRICITY   = .00012169
INCLINATION    = 42.9999
RA_OF_ASC_NODE = 165.3695
ARG_OF_PERICENTER = 246.1776
MEAN_ANOMALY   = 113.8956

EPHEMERIS_TYPE = 0
CLASSIFICATION_TYPE = U
NORAD_CAT_ID   = 67311
ELEMENT_SET_NO = 999
REV_AT_EPOCH   = 583
BSTAR          = .20695083E-2
MEAN_MOTION_DOT = .123573E-2
MEAN_MOTION_DDOT = 0

CCSDS_OMM_VERS = 2.0
CREATION_DATE  = 
ORIGINATOR     = 

OBJECT_NAME    = STARLINK-36485
OBJECT_ID      = 2026-002H
CENTER_NAME    = EARTH
REF_FRAME      = TEME
TIME_SYSTEM    = UTC
MEAN_ELEMENT_THEORY = SGP/SGP4

EPOCH          = 2026-02-02T09:53:32.001216
MEAN_MOTION    = 15.50629389
ECCENTRICITY   = .00023213
INCLINATION    = 43.0005
RA_OF_ASC_NODE = 165.3655
ARG_OF_PERICENTER = 282.1950
MEAN_ANOMALY   = 77.8650

EPHEMERIS_TYPE = 0
CLASSIFICATION_TYPE = U
NORAD_CAT_ID   = 67312
ELEMENT_SET_NO = 999
REV_AT_EPOCH   = 567
BSTAR          = .13909313E-2
MEAN_MOTION_DOT = .82271E-3
MEAN_MOTION_DDOT = 0

CCSDS_OMM_VERS = 2.0
CREATION_DATE  = 
ORIGINATOR     = 

OBJECT_NAME    = STARLINK-36445
OBJECT_ID      = 2026-002J
CENTER_NAME    = EARTH
REF_FRAME      = TEME
TIME_SYSTEM    = UTC
MEAN_ELEMENT_THEORY = SGP/SGP4

EPOCH          = 2026-02-02T09:53:02.280480
MEAN_MOTION    = 15.50642697
ECCENTRICITY   = .0002282
INCLINATION    = 43.0030
RA_OF_ASC_NODE = 165.3633
ARG_OF_PERICENTER = 275.1053
MEAN_ANOMALY   = 84.9547

EPHEMERIS_TYPE = 0
CLASSIFICATION_TYPE = U
NORAD_CAT_ID   = 67313
ELEMENT_SET_NO = 999
REV_AT_EPOCH   = 583
BSTAR          = .16836689E-2
MEAN_MOTION_DOT = .99931E-3
MEAN_MOTION_DDOT = 0

CCSDS_OMM_VERS = 2.0
CREATION_DATE  = 
ORIGINATOR     = 

OBJECT_NAME    = STARLINK-36476
OBJECT_ID      = 2026-002K
CENTER_NAME    = EARTH
REF_FRAME      = TEME
TIME_SYSTEM    = UTC
MEAN_ELEMENT_THEORY = SGP/SGP4

EPOCH          = 2026-02-02T09:52:32.736864
MEAN_MOTION    = 15.50630455
ECCENTRICITY   = .00011316
INCLINATION    = 42.9979
RA_OF_ASC_NODE = 165.3600
ARG_OF_PERICENTER = 251.1641
MEAN_ANOMALY   = 108.9097

EPHEMERIS_TYPE = 0
CLASSIFICATION_TYPE = U
NORAD_CAT_ID   = 67314
ELEMENT_SET_NO = 999
REV_AT_EPOCH   = 566
BSTAR          = .11371467E-2
MEAN_MOTION_DOT = .67066E-3
MEAN_MOTION_DDOT = 0

CCSDS_OMM_VERS = 2.0
CREATION_DATE  = 
ORIGINATOR     = 

OBJECT_NAME    = STARLINK-36463
OBJECT_ID      = 2026-002L
CENTER_NAME    = EARTH
REF_FRAME      = TEME
TIME_SYSTEM    = UTC
MEAN_ELEMENT_THEORY = SGP/SGP4

EPOCH          = 2026-02-02T09:51:33.268608
MEAN_MOTION    = 15.50603461
ECCENTRICITY   = .00013595
INCLINATION    = 42.9995
RA_OF_ASC_NODE = 165.3533
ARG_OF_PERICENTER = 240.9622
MEAN_ANOMALY   = 119.1103

EPHEMERIS_TYPE = 0
CLASSIFICATION_TYPE = U
NORAD_CAT_ID   = 67315
ELEMENT_SET_NO = 999
REV_AT_EPOCH   = 573
BSTAR          = .19452671E-2
MEAN_MOTION_DOT = .115578E-2
MEAN_MOTION_DDOT = 0

