CSG-3                   
1 67304U 26001A   26033.65054962  .00003982  00000+0  50646-3 0  9995
2 67304  97.8775 219.1996 0001263  85.6479 274.4879 14.82154759  4532
STARLINK-36490          
1 67305U 26002A   26033.41423318  .00077489  00000+0  13098-2 0  9998
2 67305  42.9969 165.3805 0000706 233.7598 126.3197 15.50660444  5739
STARLINK-36488          
1 67306U 26002B   26033.41389047  .00116934  00000+0  19662-2 0  9991
2 67306  43.0010 165.3806 0001142 257.9128 102.1604 15.50624475  5674
STARLINK-36481          
1 67307U 26002C   26033.41320377  .00065853  00000+0  11168-2 0  9999
2 67307  42.9971 165.3718 0000864 228.7762 131.3024 15.50633263  5676
STARLINK-36449          
1 67308U 26002D   26033.41286380  .00091360  00000+0  15420-2 0  9992
2 67308  43.0025 165.3724 0001979 285.3790  74.6852 15.50633475  5734
STARLINK-36482          
1 67309U 26002E   26033.41114529  .00071007  00000+0  12028-2 0  9995
2 67309  42.9975 165.3562 0001079 250.7806 109.2938 15.50636118  5672
STARLINK-36491          
1 67310U 26002F   26033.41354729  .00065979  00000+0  11188-2 0  9992
2 67310  42.9979 165.3773 0000740 255.0106 105.0672 15.50634728  5671
STARLINK-36495          
1 67311U 26002G   26033.41251912  .00123573  00000+0  20695-2 0  9991
2 67311  42.9999 165.3695 0001216 246.1776 113.8956 15.50709180  5835
STARLINK-36485          
1 67312U 26002H   26033.41217594  .00082271  00000+0  13909-2 0  9999
2 67312  43.0005 165.3655 0002321 282.1950  77.8650 15.50629389  5678
STARLINK-36445          
1 67313U 26002J   26033.41183195  .00099931  00000+0  16837-2 0  9993
2 67313  43.0030 165.3633 0002282 275.1053  84.9547 15.50642697  5834
STARLINK-36476          
1 67314U 26002K   26033.41149001  .00067066  00000+0  11371-2 0  9994
2 67314  42.9979 165.3600 0001131 251.1641 108.9097 15.50630455  5665
STARLINK-36463          
1 67315U 26002L   26033.41080172  .00115578  00000+0  19453-2 0  9999
2 67315  42.9995 165.3533 0001359 240.9622 119.1103 15.50603461  5733
